#aV2009  3 17  0  0   .00000000      96 DD+AD WGS84 FIT  NGA
## 1523 172800.00000000   900.00000000 54907  .0000000000000
+   31     2  3  4  5  6  7  8  9 10 11 12 13 14 15 16 17 18
+         19 20 21 22 23 24 25 26 27 28 29 30 31 32  0  0  0
+          0  0  0  0  0  0  0  0  0  0  0  0  0  0  0  0  0
+          0  0  0  0  0  0  0  0  0  0  0  0  0  0  0  0  0
+          0  0  0  0  0  0  0  0  0  0  0  0  0  0  0  0  0
++         0  0  0  0  0  0  0  0  0  0  0  0  0  0  0  0  0
++         0  0  0  0  0  0  0  0  0  0  0  0  0  0  0  0  0
++         0  0  0  0  0  0  0  0  0  0  0  0  0  0  0  0  0
++         0  0  0  0  0  0  0  0  0  0  0  0  0  0  0  0  0
++         0  0  0  0  0  0  0  0  0  0  0  0  0  0  0  0  0
%c cc cc ccc ccc cccc cccc cccc cccc ccccc ccccc ccccc ccccc
%c cc cc ccc ccc cccc cccc cccc cccc ccccc ccccc ccccc ccccc
%f  0.0000000  0.000000000  0.00000000000  0.000000000000000
%f  0.0000000  0.000000000  0.00000000000  0.000000000000000
%i    0    0    0    0      0      0      0      0         0
%i    0    0    0    0      0      0      0      0         0
/*      NGA, ST. LOUIS,MO.                                  
/*   EPHEMERIS COMPUTED FROM  3 DAYS OF DATA                
/* CCCCCCCCCCCCCCCCCCCCCCCCCCCCCCCCCCCCCCCCCCCCCCCCCCCCCCCCC
/* CCCCCCCCCCCCCCCCCCCCCCCCCCCCCCCCCCCCCCCCCCCCCCCCCCCCCCCCC
*  2009  3 17 14  0   .00000000                                                 
P  2   3619.712034 -15157.680344  21398.636107    154.718814                    
V  2  26433.298746   7614.473436    519.278132      -.007503                    
P  3  -5681.929173  22256.765404 -13329.780067    366.773769                    
V  3 -13199.832955  10666.325932  24339.293179       .051553                    
P  4  17828.029504  -8228.736138  17918.638928    -15.945074                    
V  4  21452.604135   8319.098521 -17030.281485      -.144296                    
P  5 -14869.221035 -18992.545334  10956.840735     -9.831930                    
V  5  -1961.499331 -14492.968388 -26929.087218      -.072142                    
P  6 -11338.817693  21924.221220  -9567.115913     36.550454                    
V  6 -11078.006662   6647.988169  27850.808651       .188372                    
P  7  25749.545048   6597.528010  -1476.480641     21.592915                    
V  7   1045.358441   2963.215955  31733.789297      -.004477                    
P  8  22822.667855  -1523.196850 -13969.645359   -194.762081                    
V  8  15961.992846   7042.949795  24923.936351      -.015936                    
P  9 -17096.588775 -14749.354861 -14713.720234     45.889212                    
V  9  17320.185068   2944.193245 -24048.987211       .020247                    
P 10  -1476.192796 -25705.272398   5567.877845    -12.808300                    
V 10   4555.795145   6542.036460  30866.809431      -.006402                    
P 11  19468.980993  12537.498789 -13502.723832      4.353922                    
V 11 -17137.245912   2142.547388 -22708.345116      -.012230                    
P 12 -12211.647919 -21392.025362  10158.273840   -305.229343                    
V 12   -713.079301 -12920.526505 -28166.719214       .042830                    
P 13  18901.572144   -247.311396  18530.346270    291.795502                    
V 13 -17465.851631  16065.924856  17919.675188       .011404                    
P 14 -21233.801264  15373.356722  -3764.180038   -139.648393                    
V 14   2383.447400  -4755.593571 -31967.250873       .055654                    
P 15   -923.495718 -18120.829545 -19350.070098   -270.009544                    
V 15  18629.787021 -16212.372269  14329.498437      -.047987                    
P 16  -3064.302518  23611.649756  11588.154234     66.893016                    
V 16  -5414.306463 -13859.597964  27179.473809      -.030099                    
P 17  21564.140303 -14111.338583  -5940.170873     50.516300                    
V 17  -3687.173080   7316.364172 -30646.609117       .014087                    
P 18 -16005.775419  -2628.173541 -20873.929848    -73.995780                    
V 18  -4870.435665 -26565.169208   6644.932255       .034767                    
P 19   2483.833637  16577.015905 -20481.805510     30.449880                    
V 19 -20986.163992  15763.258374  10415.431548      -.008517                    
P 20  13852.001271  19381.077511  11665.271537     87.919358                    
V 20   1064.946148  15261.085085 -26282.026259      -.010887                    
P 21 -25987.439319  -4230.382701  -5235.588886     24.015176                    
V 21  -5604.297385  -4983.177373  29829.797321      -.019587                    
P 22 -13255.862058  10065.626879 -20532.151363    203.303457                    
V 22  -6182.410002 -25796.487828  -8652.102618      -.005680                    
P 23  11997.467003   9196.741240  21804.281738    388.439839                    
V 23 -20184.832209  19051.518558   2798.851929       .004403                    
P 24 -21453.317262 -13428.520224   7725.751625    173.834090                    
V 24  10197.853301    303.797460  29614.154398       .032050                    
P 25  23928.144177   9369.304271   6645.986433    305.710228                    
V 25  -8357.221775    951.461981  30553.731600       .228523                    
P 26   1468.427297 -18112.266806 -19718.154854     51.558092                    
V 26  18918.948513 -14765.624849  15913.824628       .023695                    
P 27   5249.005245 -13758.699066 -21455.600940     32.993637                    
V 27  27989.212354   6760.759951   2376.913314       .031557                    
P 28  13522.798963  -7157.554189 -21249.009618    -23.687492                    
V 28   6305.509452  27310.888241  -5399.584384      -.000683                    
P 29 -18506.527061  -1313.828039  19098.208214      -.345376                    
V 29  16948.197670 -17107.669573  15365.946794       .038955                    
P 30 -16191.249275 -11018.393562  17618.507503    132.967983                    
V 30  -4533.234155 -22716.929673 -17923.217504       .025014                    
P 31 -15240.799557   9585.944086  19784.887315    -54.994563                    
V 31 -23306.172216  -7889.566406 -14152.068945      -.012129                    
P 32   7923.215654  24866.756203   5983.857979    285.526867                    
V 32  -1268.646217   7297.717930 -30483.446222      -.040033                    
EOF
